BEIDOU 3 (C01)          
1 36287U 10001A   22111.84609853 -.00000289  00000+0  00000+0 0  9996
2 36287   1.9848  49.5952 0004375  22.5862 222.6638  1.00268220 44947
BEIDOU 5 (C06)          
1 36828U 10036A   22111.80238796 -.00000115  00000+0  00000+0 0  9993
2 36828  54.1893 176.7492 0027878 187.8739 242.0040  1.00262586 43010
BEIDOU 6 (C04)          
1 37210U 10057A   22111.85002336 -.00000120  00000+0  00000+0 0  9992
2 37210   0.7633  40.3298 0001735 186.8590  88.6500  1.00270639 42060
BEIDOU 7 (C07)          
1 37256U 10068A   22112.26286499 -.00000194  00000+0  00000+0 0  9995
2 37256  50.3132 290.3134 0019181 181.8177 301.1919  1.00267479 41582
BEIDOU 8 (C08)          
1 37384U 11013A   22111.58535513 -.00000191  00000+0  00000+0 0  9993
2 37384  60.2147  54.8197 0018151 193.5205 280.6597  1.00271017 40451
BEIDOU 9 (C09)          
1 37763U 11038A   22111.63799311 -.00000063  00000+0  00000+0 0  9993
2 37763  54.4727 179.2342 0095792 227.1770 126.0710  1.00290662 39424
BEIDOU 10 (C10)         
1 37948U 11073A   22112.26477703 -.00000144  00000+0  00000+0 0  9995
2 37948  50.4269 289.9499 0077828 217.1564 253.7510  1.00265612 38194
BEIDOU 11 (C05)         
1 38091U 12008A   22112.54750661  .00000046  00000+0  00000+0 0  9992
2 38091   1.4403  65.9213 0015300 325.7358  74.7691  1.00275374 37275
BEIDOU 12 (C11)         
1 38250U 12018A   22112.61136814 -.00000094  00000+0  00000+0 0  9990
2 38250  56.7090 355.4040 0021175 257.4460 313.5094  1.86234532 68049
BEIDOU 13 (C12)         
1 38251U 12018B   22111.96299216 -.00000091  00000+0  00000+0 0  9991
2 38251  56.6267 354.7537 0012163 263.8514 276.6401  1.86234361 68036
BEIDOU 15 (C14)         
1 38775U 12050B   22112.47740447  .00000051  00000+0  00000+0 0  9997
2 38775  55.3672 113.5673 0015441 318.9533  42.9208  1.86231438 65421
BEIDOU 16 (C02)         
1 38953U 12059A   22111.91368685 -.00000183  00000+0  00000+0 0  9999
2 38953   1.8497  84.4503 0013087 295.3983 242.9560  1.00275223 34693
BEIDOU 17 (C31)         
1 40549U 15019A   22111.54840888 -.00000150  00000+0  00000+0 0  9995
2 40549  51.9816 313.4126 0035905 188.0445 358.1258  1.00255082 25862
BEIDOU 18 (C57)         
1 40748U 15037A   22111.55637590 -.00000090  00000+0  00000+0 0  9994
2 40748  55.8807 353.6677 0005603  18.7848 158.5893  1.86233427 45852
BEIDOU 19 (C58)         
1 40749U 15037B   22111.89101587 -.00000091  00000+0  00000+0 0  9995
2 40749  55.8845 353.6456 0006028 342.5068 193.9901  1.86232340 45850
BEIDOU 20 (C18)         
1 40938U 15053A   22112.41128933 -.00000122  00000+0  00000+0 0  9991
2 40938  51.5894 276.5118 0044974 193.0331 343.2898  1.00258703 24139
BEIDOU IGSO-6 (C13)     
1 41434U 16021A   22112.27152240 -.00000155  00000+0  00000+0 0  9997
2 41434  58.0228  53.4178 0044888 220.3816 127.5708  1.00293648 22260
BEIDOU-2 G7 (C03)       
1 41586U 16037A   22111.83182517 -.00000361  00000+0  00000+0 0  9992
2 41586   1.8536  68.9477 0009311   1.0161 189.9206  1.00272959 21578
BEIDOU-3 M1 (C19)       
1 43001U 17069A   22111.18241968  .00000047  00000+0  00000+0 0  9996
2 43001  55.5205 113.6037 0012430 290.5375  79.3255  1.86231762 30330
BEIDOU-3 M2 (C20)       
1 43002U 17069B   22111.82572789  .00000049  00000+0  00000+0 0  9998
2 43002  55.5202 113.6183 0010469 307.2901 176.9871  1.86231460 30334
BEIDOU-3 M3 (C27)       
1 43107U 18003A   22110.64005431 -.00000087  00000+0  00000+0 0  9990
2 43107  55.3308 354.6423 0005702  46.0295 169.3642  1.86232527 29073
BEIDOU-3 M4 (C28)       
1 43108U 18003B   22112.14898510 -.00000094  00000+0  00000+0 0  9994
2 43108  55.3236 354.5798 0002340 276.4721 274.7977  1.86231009 29106
BEIDOU-3 M5 (C21)       
1 43207U 18018A   22111.77234904  .00000048  00000+0  00000+0 0  9997
2 43207  55.4805 113.7009 0007589 323.0716  36.8840  1.86231500 28484
BEIDOU-3 M6 (C22)       
1 43208U 18018B   22111.30202673  .00000047  00000+0  00000+0 0  9994
2 43208  55.4787 113.7210 0010449 299.5159  60.3916  1.86231588 28476
BEIDOU-3 M7 (C29)       
1 43245U 18029A   22112.31746733 -.00000092  00000+0  00000+0 0  9990
2 43245  55.2464 352.3574 0001450  16.8482 153.5553  1.86232645 27647
BEIDOU-3 M8 (C30)       
1 43246U 18029B   22112.15568274 -.00000092  00000+0  10000-3 0  9990
2 43246  55.2434 352.3924 0005226   3.3877 105.0322  1.86232866 27638
BEIDOU IGSO-7 (C16)     
1 43539U 18057A   22111.79446288 -.00000119  00000+0  00000+0 0  9990
2 43539  55.0717 176.2058 0047793 226.0166 205.2660  1.00275463 13949
BEIDOU-3 M9 (C23)       
1 43581U 18062A   22111.63043111  .00000007  00000+0  00000+0 0  9999
2 43581  54.2920 234.0285 0002283 283.8616  43.2584  1.86231890 25368
BEIDOU-3 M10 (C24)      
1 43582U 18062B   22110.74007698  .00000016  00000+0  00000+0 0  9991
2 43582  54.2943 234.0492 0005293  19.4151 162.4906  1.86232066 25352
BEIDOU-3 M11 (C25)      
1 43602U 18067A   22111.49282017  .00000008  00000+0  00000+0 0  9993
2 43602  54.3757 232.6325 0007106  13.0323 355.0671  1.86231741 24867
BEIDOU-3 M12 (C26)      
1 43603U 18067B   22111.62460881  .00000007  00000+0  00000+0 0  9995
2 43603  54.3722 232.5953 0004148   4.9400   1.9032  1.86231673 24888
BEIDOU-3 M13 (C32)      
1 43622U 18072A   22111.81230289  .00000048  00000+0  00000+0 0  9995
2 43622  55.4462 113.2555 0008966 286.9914 235.1365  1.86231688 24391
BEIDOU-3 M14 (C33)      
1 43623U 18072B   22112.10948611  .00000049  00000+0  00000+0 0  9995
2 43623  55.4485 113.2376 0006854 304.0647 147.5461  1.86231687 24401
BEIDOU-3 M15 (C34)      
1 43647U 18078A   22111.32045088 -.00000089  00000+0  10000-3 0  9996
2 43647  55.1412 352.5542 0007671   7.0936 170.9912  1.86232892 23898
BEIDOU-3 M16 (C35)      
1 43648U 18078B   22111.71528172 -.00000090  00000+0  00000+0 0  9997
2 43648  55.1377 352.5474 0005675  15.4430 335.2546  1.86232285 23915
BEIDOU-3 G1 (C59)       
1 43683U 18085A   22111.98957236 -.00000286  00000+0  00000+0 0  9997
2 43683   0.8486 175.8776 0002987 321.8874 208.5796  1.00271386 12831
BEIDOU-3 M17 (C36)      
1 43706U 18093A   22110.27000231  .00000020  00000+0  00000+0 0  9992
2 43706  54.3760 233.9570 0008342 274.8129  85.0786  1.86231646 23259
BEIDOU-3 M18 (C37)      
1 43707U 18093B   22111.75253979  .00000005  00000+0  00000+0 0  9999
2 43707  54.3766 233.8964 0006786 307.1320  57.9062  1.86232209 23278
BEIDOU-3 IGSO-1 (C38)   
1 44204U 19023A   22112.56582883 -.00000222  00000+0  00000+0 0  9997
2 44204  56.4799  53.5695 0019665 204.7660 275.3129  1.00275075 11155
BEIDOU-2 G8             
1 44231U 19027A   22111.84697072 -.00000254  00000+0  00000+0 0  9993
2 44231   0.7277  73.1457 0004014 135.0214  91.2017  1.00270734 10859
BEIDOU-3 IGSO-2 (C39)   
1 44337U 19035A   22111.78848615 -.00000120  00000+0  00000+0 0  9995
2 44337  55.1113 172.2287 0023096 195.1830 245.4170  1.00270406 10481
BEIDOU-3 M23 (C45)      
1 44542U 19061A   22111.81648450  .00000005  00000+0  00000+0 0  9992
2 44542  54.6015 234.0350 0007433 342.9288  17.0353  1.86231099 17536
BEIDOU-3 M24 (C46)      
1 44543U 19061B   22111.51273216  .00000009  00000+0  00000+0 0  9998
2 44543  54.6005 234.0138 0004690 340.4194  87.1227  1.86231622 17520
BEIDOU-3 IGSO-3         
1 44709U 19073A   22111.91360537 -.00000171  00000+0  00000+0 0  9993
2 44709  57.3571 296.9646 0021327 172.0474 189.3860  1.00273450  9248
BEIDOU-3 M21            
1 44793U 19078A   22110.73563838 -.00000086  00000+0  10000-3 0  9999
2 44793  54.9905 352.6038 0007504  12.2246  87.7508  1.86232242 16373
BEIDOU-3 M22            
1 44794U 19078B   22111.52618975 -.00000090  00000+0  00000+0 0  9991
2 44794  54.9631 352.5687 0005450   8.7569 172.8075  1.86232784 16382
BEIDOU-3 M19            
1 44864U 19090A   22112.18410881  .00000050  00000+0  00000+0 0  9997
2 44864  55.3810 113.4567 0019013 271.3320 185.8324  1.86231944 15981
BEIDOU-3 M20            
1 44865U 19090B   22111.63790196  .00000048  00000+0  00000+0 0  9994
2 44865  55.3828 113.5072 0017393 284.2838 256.5503  1.86231893 15943
BEIDOU-3 G2             
1 45344U 20017A   22112.12111465 -.00000151  00000+0  00000+0 0  9995
2 45344   2.1080 349.3031 0004000  90.4502 254.0433  1.00271687  8056
BEIDOU-3 G3             
1 45807U 20040A   22112.05552663 -.00000364  00000+0  00000+0 0  9992
2 45807   1.5710 301.9631 0005565 338.0716  60.5875  1.00274242  6876
